start=new Date('2023-06-12T00:00:00.000Z').valueOf();
sats=[{"ELEMENT_SET_NO":"999","TLE_LINE1":"1 55659U 23021AH  23162.45850769  .00002614  00000-0  23502-4 0  9995","COUNTRY_CODE":"US","APOAPSIS":"361.228","DECAY_DATE":null,"CLASSIFICATION_TYPE":"U","SEMIMAJOR_AXIS":"6737.259","INCLINATION":"69.9979","TIME_SYSTEM":"UTC","SITE":"AFWTR","REV_AT_EPOCH":"1869","ECCENTRICITY":"0.00031230","MEAN_MOTION_DOT":"0.00002614","PERIAPSIS":"357.020","RA_OF_ASC_NODE":"190.2911","MEAN_ANOMALY":"95.4569","NORAD_CAT_ID":"55659","LAUNCH_DATE":"2023-02-17","MEAN_MOTION_DDOT":"0.0000000000000","OBJECT_ID":"2023-021AH","CENTER_NAME":"EARTH","OBJECT_NAME":"STARLINK-5477","TLE_LINE2":"2 55659  69.9979 190.2911 0003123 264.6271  95.4569 15.69921289 18695","GP_ID":"233728426","RCS_SIZE":"LARGE","REF_FRAME":"TEME","OBJECT_TYPE":"PAYLOAD","FILE":"3930737","MEAN_ELEMENT_THEORY":"SGP4","EPHEMERIS_TYPE":"0","EPOCH":"2023-06-11T11:00:15.064416","ARG_OF_PERICENTER":"264.6271","BSTAR":"0.00002350200000","MEAN_MOTION":"15.69921289","PERIOD":"91.724"},{"PERIOD":"91.724","MEAN_MOTION":"15.69918829","BSTAR":"0.00000979430000","ARG_OF_PERICENTER":"263.6713","EPHEMERIS_TYPE":"0","EPOCH":"2023-06-11T11:00:42.581088","REF_FRAME":"TEME","FILE":"3930737","MEAN_ELEMENT_THEORY":"SGP4","OBJECT_TYPE":"PAYLOAD","RCS_SIZE":"LARGE","OBJECT_NAME":"STARLINK-5467","TLE_LINE2":"2 55660  69.9980 190.2920 0003228 263.6713  96.4115 15.69918829 18699","GP_ID":"233729177","MEAN_MOTION_DDOT":"0.0000000000000","CENTER_NAME":"EARTH","OBJECT_ID":"2023-021AJ","NORAD_CAT_ID":"55660","LAUNCH_DATE":"2023-02-17","PERIAPSIS":"356.956","MEAN_ANOMALY":"96.4115","RA_OF_ASC_NODE":"190.2920","ECCENTRICITY":"0.00032280","MEAN_MOTION_DOT":"0.00000965","REV_AT_EPOCH":"1869","SITE":"AFWTR","TIME_SYSTEM":"UTC","DECAY_DATE":null,"INCLINATION":"69.9980","SEMIMAJOR_AXIS":"6737.266","CLASSIFICATION_TYPE":"U","COUNTRY_CODE":"US","TLE_LINE1":"1 55660U 23021AJ  23162.45882617  .00000965  00000-0  97943-5 0  9992","ELEMENT_SET_NO":"999","APOAPSIS":"361.306"},{"PERIOD":"91.725","MEAN_MOTION":"15.69917383","ARG_OF_PERICENTER":"267.7321","BSTAR":"0.00002239700000","EPOCH":"2023-06-11T10:59:47.927904","EPHEMERIS_TYPE":"0","OBJECT_TYPE":"PAYLOAD","MEAN_ELEMENT_THEORY":"SGP4","FILE":"3930737","REF_FRAME":"TEME","RCS_SIZE":"LARGE","GP_ID":"233729925","OBJECT_NAME":"STARLINK-5475","TLE_LINE2":"2 55661  69.9971 190.2899 0003523 267.7321  92.3472 15.69917383 18698","OBJECT_ID":"2023-021AK","CENTER_NAME":"EARTH","MEAN_MOTION_DDOT":"0.0000000000000","LAUNCH_DATE":"2023-02-17","NORAD_CAT_ID":"55661","RA_OF_ASC_NODE":"190.2899","MEAN_ANOMALY":"92.3472","PERIAPSIS":"356.762","MEAN_MOTION_DOT":"0.00002480","ECCENTRICITY":"0.00035230","SITE":"AFWTR","REV_AT_EPOCH":"1869","TIME_SYSTEM":"UTC","SEMIMAJOR_AXIS":"6737.270","CLASSIFICATION_TYPE":"U","INCLINATION":"69.9971","DECAY_DATE":null,"APOAPSIS":"361.509","TLE_LINE1":"1 55661U 23021AK  23162.45819361  .00002480  00000-0  22397-4 0  9993","ELEMENT_SET_NO":"999","COUNTRY_CODE":"US"},{"ARG_OF_PERICENTER":"265.8879","BSTAR":"0.00000869680000","MEAN_MOTION":"15.69921672","PERIOD":"91.724","GP_ID":"233698270","OBJECT_NAME":"STARLINK-5479","TLE_LINE2":"2 55662  69.9974 190.1127 0003422 265.8879  94.1925 15.69921672 18701","RCS_SIZE":"LARGE","OBJECT_TYPE":"PAYLOAD","MEAN_ELEMENT_THEORY":"SGP4","FILE":"3930529","REF_FRAME":"TEME","EPOCH":"2023-06-11T12:32:18.565440","EPHEMERIS_TYPE":"0","MEAN_MOTION_DOT":"0.00000833","ECCENTRICITY":"0.00034220","RA_OF_ASC_NODE":"190.1127","MEAN_ANOMALY":"94.1925","PERIAPSIS":"356.818","LAUNCH_DATE":"2023-02-17","NORAD_CAT_ID":"55662","OBJECT_ID":"2023-021AL","CENTER_NAME":"EARTH","MEAN_MOTION_DDOT":"0.0000000000000","APOAPSIS":"361.429","TLE_LINE1":"1 55662U 23021AL  23162.52243710  .00000833  00000-0  86968-5 0  9996","ELEMENT_SET_NO":"999","COUNTRY_CODE":"US","SEMIMAJOR_AXIS":"6737.258","CLASSIFICATION_TYPE":"U","INCLINATION":"69.9974","DECAY_DATE":null,"TIME_SYSTEM":"UTC","SITE":"AFWTR","REV_AT_EPOCH":"1870"},{"CLASSIFICATION_TYPE":"U","SEMIMAJOR_AXIS":"6737.247","INCLINATION":"69.9975","DECAY_DATE":null,"APOAPSIS":"361.510","TLE_LINE1":"1 55663U 23021AM  23162.45766524 -.00000072  00000-0  11736-5 0  9999","ELEMENT_SET_NO":"999","COUNTRY_CODE":"US","SITE":"AFWTR","REV_AT_EPOCH":"1869","TIME_SYSTEM":"UTC","RA_OF_ASC_NODE":"190.2875","MEAN_ANOMALY":"92.6843","PERIAPSIS":"356.715","MEAN_MOTION_DOT":"-0.00000072","ECCENTRICITY":"0.00035580","OBJECT_ID":"2023-021AM","CENTER_NAME":"EARTH","MEAN_MOTION_DDOT":"0.0000000000000","LAUNCH_DATE":"2023-02-17","NORAD_CAT_ID":"55663","RCS_SIZE":"LARGE","GP_ID":"233728927","TLE_LINE2":"2 55663  69.9975 190.2875 0003558 267.3946  92.6843 15.69925390 18697","OBJECT_NAME":"STARLINK-5473","EPOCH":"2023-06-11T10:59:02.276736","EPHEMERIS_TYPE":"0","OBJECT_TYPE":"PAYLOAD","MEAN_ELEMENT_THEORY":"SGP4","FILE":"3930737","REF_FRAME":"TEME","ARG_OF_PERICENTER":"267.3946","BSTAR":"0.00000117360000","PERIOD":"91.724","MEAN_MOTION":"15.69925390"},{"LAUNCH_DATE":"2023-02-17","NORAD_CAT_ID":"55664","OBJECT_ID":"2023-021AN","CENTER_NAME":"EARTH","MEAN_MOTION_DDOT":"0.0000000000000","MEAN_MOTION_DOT":"-0.00001481","ECCENTRICITY":"0.00029160","RA_OF_ASC_NODE":"190.2910","MEAN_ANOMALY":"93.2802","PERIAPSIS":"357.128","TIME_SYSTEM":"UTC","SITE":"AFWTR","REV_AT_EPOCH":"1869","APOAPSIS":"361.057","TLE_LINE1":"1 55664U 23021AN  23162.45830006 -.00001481  00000-0 -10546-4 0  9990","ELEMENT_SET_NO":"999","COUNTRY_CODE":"US","CLASSIFICATION_TYPE":"U","SEMIMAJOR_AXIS":"6737.227","INCLINATION":"69.9983","DECAY_DATE":null,"MEAN_MOTION":"15.69932461","PERIOD":"91.724","ARG_OF_PERICENTER":"266.8060","BSTAR":"-0.00001054600000","OBJECT_TYPE":"PAYLOAD","FILE":"3930737","MEAN_ELEMENT_THEORY":"SGP4","REF_FRAME":"TEME","EPOCH":"2023-06-11T10:59:57.125184","EPHEMERIS_TYPE":"0","GP_ID":"233728677","OBJECT_NAME":"STARLINK-5480","TLE_LINE2":"2 55664  69.9983 190.2910 0002916 266.8060  93.2802 15.69932461 18694","RCS_SIZE":"LARGE"},{"REV_AT_EPOCH":"1871","SITE":"AFWTR","TIME_SYSTEM":"UTC","DECAY_DATE":null,"INCLINATION":"69.9975","SEMIMAJOR_AXIS":"6737.245","CLASSIFICATION_TYPE":"U","COUNTRY_CODE":"US","TLE_LINE1":"1 55665U 23021AP  23162.58541314  .00001000  00000-0  10086-4 0  9990","ELEMENT_SET_NO":"999","APOAPSIS":"361.446","MEAN_MOTION_DDOT":"0.0000000000000","CENTER_NAME":"EARTH","OBJECT_ID":"2023-021AP","NORAD_CAT_ID":"55665","LAUNCH_DATE":"2023-02-17","PERIAPSIS":"356.773","MEAN_ANOMALY":"92.9504","RA_OF_ASC_NODE":"189.9305","ECCENTRICITY":"0.00034680","MEAN_MOTION_DOT":"0.00001000","EPHEMERIS_TYPE":"0","EPOCH":"2023-06-11T14:02:59.695296","REF_FRAME":"TEME","MEAN_ELEMENT_THEORY":"SGP4","FILE":"3930737","OBJECT_TYPE":"PAYLOAD","RCS_SIZE":"LARGE","TLE_LINE2":"2 55665  69.9975 189.9305 0003468 267.1295  92.9504 15.69926329 18710","OBJECT_NAME":"STARLINK-5474","GP_ID":"233729425","PERIOD":"91.724","MEAN_MOTION":"15.69926329","BSTAR":"0.00001008600000","ARG_OF_PERICENTER":"267.1295"},{"MEAN_MOTION_DOT":"0.00003204","ECCENTRICITY":"0.00031590","MEAN_ANOMALY":"91.1121","RA_OF_ASC_NODE":"190.2861","PERIAPSIS":"357.011","LAUNCH_DATE":"2023-02-17","NORAD_CAT_ID":"55667","CENTER_NAME":"EARTH","OBJECT_ID":"2023-021AR","MEAN_MOTION_DDOT":"0.0000000000000","APOAPSIS":"361.267","COUNTRY_CODE":"US","ELEMENT_SET_NO":"999","TLE_LINE1":"1 55667U 23021AR  23162.45756727  .00003204  00000-0  28413-4 0  9995","INCLINATION":"69.9976","CLASSIFICATION_TYPE":"U","SEMIMAJOR_AXIS":"6737.274","DECAY_DATE":null,"TIME_SYSTEM":"UTC","REV_AT_EPOCH":"1869","SITE":"AFWTR","BSTAR":"0.00002841300000","ARG_OF_PERICENTER":"268.9713","MEAN_MOTION":"15.69916083","PERIOD":"91.725","GP_ID":"233730175","OBJECT_NAME":"STARLINK-5456","TLE_LINE2":"2 55667  69.9976 190.2861 0003159 268.9713  91.1121 15.69916083 18695","RCS_SIZE":"LARGE","FILE":"3930737","MEAN_ELEMENT_THEORY":"SGP4","OBJECT_TYPE":"PAYLOAD","REF_FRAME":"TEME","EPOCH":"2023-06-11T10:58:53.812128","EPHEMERIS_TYPE":"0"},{"BSTAR":"0.00001779700000","ARG_OF_PERICENTER":"267.0533","PERIOD":"91.724","MEAN_MOTION":"15.69922170","RCS_SIZE":"LARGE","TLE_LINE2":"2 55668  69.9979 190.2906 0003573 267.0533  93.0254 15.69922170 18691","OBJECT_NAME":"STARLINK-5455","GP_ID":"233728427","EPHEMERIS_TYPE":"0","EPOCH":"2023-06-11T10:59:38.683968","REF_FRAME":"TEME","FILE":"3930737","MEAN_ELEMENT_THEORY":"SGP4","OBJECT_TYPE":"PAYLOAD","PERIAPSIS":"356.714","MEAN_ANOMALY":"93.0254","RA_OF_ASC_NODE":"190.2906","ECCENTRICITY":"0.00035730","MEAN_MOTION_DOT":"0.00001927","MEAN_MOTION_DDOT":"0.0000000000000","CENTER_NAME":"EARTH","OBJECT_ID":"2023-021AS","NORAD_CAT_ID":"55668","LAUNCH_DATE":"2023-02-17","DECAY_DATE":null,"INCLINATION":"69.9979","CLASSIFICATION_TYPE":"U","SEMIMAJOR_AXIS":"6737.257","COUNTRY_CODE":"US","ELEMENT_SET_NO":"999","TLE_LINE1":"1 55668U 23021AS  23162.45808662  .00001927  00000-0  17797-4 0  9995","APOAPSIS":"361.529","REV_AT_EPOCH":"1869","SITE":"AFWTR","TIME_SYSTEM":"UTC"},{"APOAPSIS":"361.439","ELEMENT_SET_NO":"999","TLE_LINE1":"1 55669U 23021AT  23162.45777106  .00000756  00000-0  80613-5 0  9991","COUNTRY_CODE":"US","SEMIMAJOR_AXIS":"6737.261","CLASSIFICATION_TYPE":"U","INCLINATION":"69.9979","DECAY_DATE":null,"TIME_SYSTEM":"UTC","SITE":"AFWTR","REV_AT_EPOCH":"1869","MEAN_MOTION_DOT":"0.00000756","ECCENTRICITY":"0.00034330","RA_OF_ASC_NODE":"190.2891","MEAN_ANOMALY":"96.1794","PERIAPSIS":"356.813","LAUNCH_DATE":"2023-02-17","NORAD_CAT_ID":"55669","OBJECT_ID":"2023-021AT","CENTER_NAME":"EARTH","MEAN_MOTION_DDOT":"0.0000000000000","GP_ID":"233729178","OBJECT_NAME":"STARLINK-5459","TLE_LINE2":"2 55669  69.9979 190.2891 0003433 263.9011  96.1794 15.69920532 18699","RCS_SIZE":"LARGE","OBJECT_TYPE":"PAYLOAD","MEAN_ELEMENT_THEORY":"SGP4","FILE":"3930737","REF_FRAME":"TEME","EPOCH":"2023-06-11T10:59:11.419584","EPHEMERIS_TYPE":"0","ARG_OF_PERICENTER":"263.9011","BSTAR":"0.00000806130000","MEAN_MOTION":"15.69920532","PERIOD":"91.724"}];
